[
    {
        "Altitude(m)": 553593.2231659988,
        "Argument of Periapsis(deg)": 0.006622991110713501,
        "Eccentricity": 0.0,
        "Inclination(deg)": 53.0,
        "Latitude(deg)": 16.505919989645893,
        "Longitude(deg)": -3.603935247440975,
        "Mean Anomaly(deg)": -200.81750713242246,
        "RAAN(deg)": 289.99014336852804,
        "Satellite Name": "Starlink Shell 1 1285",
        "Satellite Number": 1285,
        "Semi-Major Axis(m)": 6931778.249405717,
        "Time(s)": 190
    },
    {
        "Altitude(m)": 553571.0493710103,
        "Argument of Periapsis(deg)": 0.0069715695902247375,
        "Eccentricity": 0.0,
        "Inclination(deg)": 53.0,
        "Latitude(deg)": 16.014363696979935,
        "Longitude(deg)": -3.2365993511453226,
        "Mean Anomaly(deg)": -200.19067592886574,
        "RAAN(deg)": 289.9896245984506,
        "Satellite Name": "Starlink Shell 1 1285",
        "Satellite Number": 1285,
        "Semi-Major Axis(m)": 6931778.249405717,
        "Time(s)": 200
    },
    {
        "Altitude(m)": 553551.2554432178,
        "Argument of Periapsis(deg)": 0.007320148069735974,
        "Eccentricity": 0.0,
        "Inclination(deg)": 53.0,
        "Latitude(deg)": 15.522014719099241,
        "Longitude(deg)": -2.8712609180513446,
        "Mean Anomaly(deg)": -199.5638447253089,
        "RAAN(deg)": 289.9891058283731,
        "Satellite Name": "Starlink Shell 1 1285",
        "Satellite Number": 1285,
        "Semi-Major Axis(m)": 6931778.249405717,
        "Time(s)": 210
    },
    {
        "Altitude(m)": 553533.8732507195,
        "Argument of Periapsis(deg)": 0.007668726549247212,
        "Eccentricity": 0.0,
        "Inclination(deg)": 53.0,
        "Latitude(deg)": 15.028902352738587,
        "Longitude(deg)": -2.5078494394950366,
        "Mean Anomaly(deg)": -198.9370135217523,
        "RAAN(deg)": 289.98858705829565,
        "Satellite Name": "Starlink Shell 1 1285",
        "Satellite Number": 1285,
        "Semi-Major Axis(m)": 6931778.249405717,
        "Time(s)": 220
    },
    {
        "Altitude(m)": 553518.933583029,
        "Argument of Periapsis(deg)": 0.00801730502875845,
        "Eccentricity": 0.0,
        "Inclination(deg)": 53.0,
        "Latitude(deg)": 14.535055470097369,
        "Longitude(deg)": -2.146295223034146,
        "Mean Anomaly(deg)": -198.31018231819556,
        "RAAN(deg)": 289.9880682882182,
        "Satellite Name": "Starlink Shell 1 1285",
        "Satellite Number": 1285,
        "Semi-Major Axis(m)": 6931778.249405717,
        "Time(s)": 230
    },
    {
        "Altitude(m)": 553506.4661331291,
        "Argument of Periapsis(deg)": 0.008365883508269684,
        "Eccentricity": 0.0,
        "Inclination(deg)": 53.0,
        "Latitude(deg)": 14.040502536024496,
        "Longitude(deg)": -1.7865288612188759,
        "Mean Anomaly(deg)": -197.6833511146389,
        "RAAN(deg)": 289.98754951814067,
        "Satellite Name": "Starlink Shell 1 1285",
        "Satellite Number": 1285,
        "Semi-Major Axis(m)": 6931778.249405717,
        "Time(s)": 240
    },
    {
        "Altitude(m)": 553496.4994800555,
        "Argument of Periapsis(deg)": 0.008714461987780921,
        "Eccentricity": 0.0,
        "Inclination(deg)": 53.0,
        "Latitude(deg)": 13.545271624838387,
        "Longitude(deg)": -1.428482213196899,
        "Mean Anomaly(deg)": -197.0565199110821,
        "RAAN(deg)": 289.9870307480632,
        "Satellite Name": "Starlink Shell 1 1285",
        "Satellite Number": 1285,
        "Semi-Major Axis(m)": 6931778.249405717,
        "Time(s)": 250
    },
    {
        "Altitude(m)": 553489.0610720216,
        "Argument of Periapsis(deg)": 0.009063040467292158,
        "Eccentricity": 0.0,
        "Inclination(deg)": 53.0,
        "Latitude(deg)": 13.04939043680273,
        "Longitude(deg)": -1.0720878734311747,
        "Mean Anomaly(deg)": -196.42968870752537,
        "RAAN(deg)": 289.98651197798574,
        "Satellite Name": "Starlink Shell 1 1285",
        "Satellite Number": 1285,
        "Semi-Major Axis(m)": 6931778.249405717,
        "Time(s)": 260
    },
    {
        "Altitude(m)": 553484.1772100539,
        "Argument of Periapsis(deg)": 0.009411618946803396,
        "Eccentricity": 0.0,
        "Inclination(deg)": 53.0,
        "Latitude(deg)": 12.552886314265734,
        "Longitude(deg)": -0.7172786404227977,
        "Mean Anomaly(deg)": -195.8028575039687,
        "RAAN(deg)": 289.9859932079083,
        "Satellite Name": "Starlink Shell 1 1285",
        "Satellite Number": 1285,
        "Semi-Major Axis(m)": 6931778.249405717,
        "Time(s)": 270
    },
    {
        "Altitude(m)": 553481.8730322745,
        "Argument of Periapsis(deg)": 0.009760197426314633,
        "Eccentricity": 0.0,
        "Inclination(deg)": 53.0,
        "Latitude(deg)": 12.05578625747347,
        "Longitude(deg)": -0.3639884983292718,
        "Mean Anomaly(deg)": -195.176026300412,
        "RAAN(deg)": 289.98547443783076,
        "Satellite Name": "Starlink Shell 1 1285",
        "Satellite Number": 1285,
        "Semi-Major Axis(m)": 6931778.249405717,
        "Time(s)": 280
    },
    {
        "Altitude(m)": 553482.1724986412,
        "Argument of Periapsis(deg)": 0.01010877590582587,
        "Eccentricity": 0.0,
        "Inclination(deg)": 53.0,
        "Latitude(deg)": 11.558116940076504,
        "Longitude(deg)": -0.012152085748913256,
        "Mean Anomaly(deg)": -194.5491950968553,
        "RAAN(deg)": 289.98495566775335,
        "Satellite Name": "Starlink Shell 1 1285",
        "Satellite Number": 1285,
        "Semi-Major Axis(m)": 6931778.249405717,
        "Time(s)": 290
    },
    {
        "Altitude(m)": 553485.0983763285,
        "Argument of Periapsis(deg)": 0.010457354385337106,
        "Eccentricity": 0.0,
        "Inclination(deg)": 53.0,
        "Latitude(deg)": 11.059904724337319,
        "Longitude(deg)": 0.3382958354442398,
        "Mean Anomaly(deg)": -193.92236389329852,
        "RAAN(deg)": 289.98443689767583,
        "Satellite Name": "Starlink Shell 1 1285",
        "Satellite Number": 1285,
        "Semi-Major Axis(m)": 6931778.249405717,
        "Time(s)": 300
    },
    {
        "Altitude(m)": 553490.6722256879,
        "Argument of Periapsis(deg)": 0.010805932864848343,
        "Eccentricity": 0.0,
        "Inclination(deg)": 53.0,
        "Latitude(deg)": 10.561175676050679,
        "Longitude(deg)": 0.6874193983302375,
        "Mean Anomaly(deg)": -193.29553268974183,
        "RAAN(deg)": 289.9839181275984,
        "Satellite Name": "Starlink Shell 1 1285",
        "Satellite Number": 1285,
        "Semi-Major Axis(m)": 6931778.249405717,
        "Time(s)": 310
    },
    {
        "Altitude(m)": 553498.9143867727,
        "Argument of Periapsis(deg)": 0.01115451134435958,
        "Eccentricity": 0.0,
        "Inclination(deg)": 53.0,
        "Latitude(deg)": 10.061955579193052,
        "Longitude(deg)": 1.0352821619747867,
        "Mean Anomaly(deg)": -192.66870148618517,
        "RAAN(deg)": 289.9833993575209,
        "Satellite Name": "Starlink Shell 1 1285",
        "Satellite Number": 1285,
        "Semi-Major Axis(m)": 6931778.249405717,
        "Time(s)": 320
    },
    {
        "Altitude(m)": 553509.8439664877,
        "Argument of Periapsis(deg)": 0.011503089823870818,
        "Eccentricity": 0.0,
        "Inclination(deg)": 53.0,
        "Latitude(deg)": 9.562269950312466,
        "Longitude(deg)": 1.3819476423809656,
        "Mean Anomaly(deg)": -192.04187028262842,
        "RAAN(deg)": 289.9828805874434,
        "Satellite Name": "Starlink Shell 1 1285",
        "Satellite Number": 1285,
        "Semi-Major Axis(m)": 6931778.249405717,
        "Time(s)": 330
    },
    {
        "Altitude(m)": 553523.4788263248,
        "Argument of Periapsis(deg)": 0.011851668303382053,
        "Eccentricity": 0.0,
        "Inclination(deg)": 53.0,
        "Latitude(deg)": 9.062144052666863,
        "Longitude(deg)": 1.7274783304849328,
        "Mean Anomaly(deg)": -191.41503907907165,
        "RAAN(deg)": 289.982361817366,
        "Satellite Name": "Starlink Shell 1 1285",
        "Satellite Number": 1285,
        "Semi-Major Axis(m)": 6931778.249405717,
        "Time(s)": 340
    },
    {
        "Altitude(m)": 553539.8355707246,
        "Argument of Periapsis(deg)": 0.012200246782893292,
        "Eccentricity": 0.0,
        "Inclination(deg)": 53.0,
        "Latitude(deg)": 8.561602910130333,
        "Longitude(deg)": 2.071936222934031,
        "Mean Anomaly(deg)": -190.78820787551493,
        "RAAN(deg)": 289.9818430472885,
        "Satellite Name": "Starlink Shell 1 1285",
        "Satellite Number": 1285,
        "Semi-Major Axis(m)": 6931778.249405717,
        "Time(s)": 350
    },
    {
        "Altitude(m)": 553558.9295360501,
        "Argument of Periapsis(deg)": 0.012548825262404526,
        "Eccentricity": 0.0,
        "Inclination(deg)": 53.0,
        "Latitude(deg)": 8.060671320875425,
        "Longitude(deg)": 2.415383352773979,
        "Mean Anomaly(deg)": -190.16137667195824,
        "RAAN(deg)": 289.981324277211,
        "Satellite Name": "Starlink Shell 1 1285",
        "Satellite Number": 1285,
        "Semi-Major Axis(m)": 6931778.249405717,
        "Time(s)": 360
    },
    {
        "Altitude(m)": 553580.774780194,
        "Argument of Periapsis(deg)": 0.012897403741915765,
        "Eccentricity": 0.0,
        "Inclination(deg)": 53.0,
        "Latitude(deg)": 7.559373870841653,
        "Longitude(deg)": 2.757880807168629,
        "Mean Anomaly(deg)": -189.5345454684016,
        "RAAN(deg)": 289.98080550713354,
        "Satellite Name": "Starlink Shell 1 1285",
        "Satellite Number": 1285,
        "Semi-Major Axis(m)": 6931778.249405717,
        "Time(s)": 370
    }
]